[
  {
    "OBJECT_NAME": "CYGNUS NG-20",
    "OBJECT_ID": "2024-021A",
    "EPOCH": "2024-01-31T03:58:57.256608",
    "MEAN_MOTION": 16.15013101,
    "ECCENTRICITY": 0.0011503,
    "INCLINATION": 51.6653,
    "RA_OF_ASC_NODE": 279.5913,
    "ARG_OF_PERICENTER": 10.0447,
    "MEAN_ANOMALY": 116.1181,
    "EPHEMERIS_TYPE": 0,
    "CLASSIFICATION_TYPE": "U",
    "NORAD_CAT_ID": 58898,
    "ELEMENT_SET_NO": 999,
    "REV_AT_EPOCH": 7,
    "BSTAR": 0,
    "MEAN_MOTION_DOT": -3.708e-05,
    "MEAN_MOTION_DDOT": 1.1723e-05
  },
  {
    "OBJECT_NAME": "2024-022A",
    "OBJECT_ID": "2024-022A",
    "EPOCH": "2024-01-31T18:40:07.566240",
    "MEAN_MOTION": 15.11623415,
    "ECCENTRICITY": 0.0014994,
    "INCLINATION": 97.4886,
    "RA_OF_ASC_NODE": 234.7246,
    "ARG_OF_PERICENTER": 292.1632,
    "MEAN_ANOMALY": 131.1268,
    "EPHEMERIS_TYPE": 0,
    "CLASSIFICATION_TYPE": "U",
    "NORAD_CAT_ID": 58899,
    "ELEMENT_SET_NO": 999,
    "REV_AT_EPOCH": 7,
    "BSTAR": 0,
    "MEAN_MOTION_DOT": -6.4e-07,
    "MEAN_MOTION_DDOT": 0
  },
  {
    "OBJECT_NAME": "2024-022B",
    "OBJECT_ID": "2024-022B",
    "EPOCH": "2024-01-31T17:05:00.051360",
    "MEAN_MOTION": 15.11780668,
    "ECCENTRICITY": 0.0014695,
    "INCLINATION": 97.4826,
    "RA_OF_ASC_NODE": 234.6545,
    "ARG_OF_PERICENTER": 286.9718,
    "MEAN_ANOMALY": 137.3141,
    "EPHEMERIS_TYPE": 0,
    "CLASSIFICATION_TYPE": "U",
    "NORAD_CAT_ID": 58900,
    "ELEMENT_SET_NO": 999,
    "REV_AT_EPOCH": 6,
    "BSTAR": 0,
    "MEAN_MOTION_DOT": -6.4e-07,
    "MEAN_MOTION_DDOT": 0
  },
  {
    "OBJECT_NAME": "2024-022C",
    "OBJECT_ID": "2024-022C",
    "EPOCH": "2024-01-31T18:39:25.278624",
    "MEAN_MOTION": 15.11954958,
    "ECCENTRICITY": 0.0013724,
    "INCLINATION": 97.4895,
    "RA_OF_ASC_NODE": 234.7237,
    "ARG_OF_PERICENTER": 284.3165,
    "MEAN_ANOMALY": 136.8954,
    "EPHEMERIS_TYPE": 0,
    "CLASSIFICATION_TYPE": "U",
    "NORAD_CAT_ID": 58901,
    "ELEMENT_SET_NO": 999,
    "REV_AT_EPOCH": 7,
    "BSTAR": 0,
    "MEAN_MOTION_DOT": -6.5e-07,
    "MEAN_MOTION_DDOT": 0
  },
  {
    "OBJECT_NAME": "2024-022D",
    "OBJECT_ID": "2024-022D",
    "EPOCH": "2024-01-31T18:39:03.252672",
    "MEAN_MOTION": 15.12181813,
    "ECCENTRICITY": 0.0012151,
    "INCLINATION": 97.485,
    "RA_OF_ASC_NODE": 234.7151,
    "ARG_OF_PERICENTER": 277.4673,
    "MEAN_ANOMALY": 142.7499,
    "EPHEMERIS_TYPE": 0,
    "CLASSIFICATION_TYPE": "U",
    "NORAD_CAT_ID": 58902,
    "ELEMENT_SET_NO": 999,
    "REV_AT_EPOCH": 7,
    "BSTAR": 0,
    "MEAN_MOTION_DOT": -6.4e-07,
    "MEAN_MOTION_DDOT": 0
  },
  {
    "OBJECT_NAME": "2024-022E",
    "OBJECT_ID": "2024-022E",
    "EPOCH": "2024-01-31T18:39:06.178176",
    "MEAN_MOTION": 15.12361804,
    "ECCENTRICITY": 0.0012509,
    "INCLINATION": 97.4893,
    "RA_OF_ASC_NODE": 234.7244,
    "ARG_OF_PERICENTER": 270.4935,
    "MEAN_ANOMALY": 150.219,
    "EPHEMERIS_TYPE": 0,
    "CLASSIFICATION_TYPE": "U",
    "NORAD_CAT_ID": 58903,
    "ELEMENT_SET_NO": 999,
    "REV_AT_EPOCH": 7,
    "BSTAR": 0,
    "MEAN_MOTION_DOT": -6.5e-07,
    "MEAN_MOTION_DDOT": 0
  },
  {
    "OBJECT_NAME": "2024-022F",
    "OBJECT_ID": "2024-022F",
    "EPOCH": "2024-01-31T18:29:57.380928",
    "MEAN_MOTION": 15.72748031,
    "ECCENTRICITY": 0.0257186,
    "INCLINATION": 97.4966,
    "RA_OF_ASC_NODE": 234.7705,
    "ARG_OF_PERICENTER": 214.7988,
    "MEAN_ANOMALY": 270.6952,
    "EPHEMERIS_TYPE": 0,
    "CLASSIFICATION_TYPE": "U",
    "NORAD_CAT_ID": 58904,
    "ELEMENT_SET_NO": 999,
    "REV_AT_EPOCH": 7,
    "BSTAR": 0,
    "MEAN_MOTION_DOT": -7.35e-06,
    "MEAN_MOTION_DDOT": 2.3285e-06
  }
]