CYGNUS NG-20            
1 58898U 24021A   24031.16594047 -.00003708  11723-4  00000+0 0  9999
2 58898  51.6653 279.5913 0011503  10.0447 116.1181 16.15013101    73
2024-022A               
1 58899U 24022A   24031.77786535 -.00000064  00000+0  00000+0 0  9996
2 58899  97.4886 234.7246 0014994 292.1632 131.1268 15.11623415    71
2024-022B               
1 58900U 24022B   24031.71180615 -.00000064  00000+0  00000+0 0  9990
2 58900  97.4826 234.6545 0014695 286.9718 137.3141 15.11780668    64
2024-022C               
1 58901U 24022C   24031.77737591 -.00000065  00000+0  00000+0 0  9999
2 58901  97.4895 234.7237 0013724 284.3165 136.8954 15.11954958    72
2024-022D               
1 58902U 24022D   24031.77712098 -.00000064  00000+0  00000+0 0  9994
2 58902  97.4850 234.7151 0012151 277.4673 142.7499 15.12181813    72
2024-022E               
1 58903U 24022E   24031.77715484 -.00000065  00000+0  00000+0 0  9998
2 58903  97.4893 234.7244 0012509 270.4935 150.2190 15.12361804    76
2024-022F               
1 58904U 24022F   24031.77080302 -.00000735  23285-5  00000+0 0  9993
2 58904  97.4966 234.7705 0257186 214.7988 270.6952 15.72748031    71
